{
    "links": {
        "self": "http://www.neowsapp.com/rest/v1/neo/3248660?api_key=iIulBulltgU6a56xZRHN4H3l9WmuAYTsLGpBGhQ2"
    },
    "id": "3248660",
    "neo_reference_id": "3248660",
    "name": "(2004 NF3)",
    "designation": "2004 NF3",
    "nasa_jpl_url": "http://ssd.jpl.nasa.gov/sbdb.cgi?sstr=3248660",
    "absolute_magnitude_h": 24.5,
    "estimated_diameter": {
        "kilometers": {
            "estimated_diameter_min": 0.0334622374,
            "estimated_diameter_max": 0.0748238376
        },
        "meters": {
            "estimated_diameter_min": 33.4622374455,
            "estimated_diameter_max": 74.8238376074
        },
        "miles": {
            "estimated_diameter_min": 0.0207924639,
            "estimated_diameter_max": 0.0464933628
        },
        "feet": {
            "estimated_diameter_min": 109.7842471007,
            "estimated_diameter_max": 245.4850393757
        }
    },
    "is_potentially_hazardous_asteroid": false,
    "close_approach_data": [
        {
            "close_approach_date": "2004-07-09",
            "close_approach_date_full": "2004-Jul-09 18:41",
            "epoch_date_close_approach": 1089398460000,
            "relative_velocity": {
                "kilometers_per_second": "5.7714456325",
                "kilometers_per_hour": "20777.2042771606",
                "miles_per_hour": "12910.146735439"
            },
            "miss_distance": {
                "astronomical": "0.0597703086",
                "lunar": "23.2506500454",
                "kilometers": "8941510.855802682",
                "miles": "5555997.2107817316"
            },
            "orbiting_body": "Earth"
        }
    ],
    "orbital_data": {
        "orbit_id": "11",
        "orbit_determination_date": "2017-04-06 09:12:33",
        "first_observation_date": "2004-07-11",
        "last_observation_date": "2004-07-22",
        "data_arc_in_days": 11,
        "observations_used": 38,
        "orbit_uncertainty": "8",
        "minimum_orbit_intersection": ".0578624",
        "jupiter_tisserand_invariant": "3.624",
        "epoch_osculation": "2453203.5",
        "eccentricity": ".4801908273899622",
        "semi_major_axis": "2.066372722337507",
        "inclination": ".7863792684638807",
        "ascending_node_longitude": "270.2076758259245",
        "orbital_period": "1084.954229455163",
        "perihelion_distance": "1.074119495102211",
        "perihelion_argument": "22.51675945381828",
        "aphelion_distance": "3.058625949572804",
        "perihelion_time": "2453200.241108750867",
        "mean_anomaly": "1.081336721713166",
        "mean_motion": ".3318112324247846",
        "equinox": "J2000",
        "orbit_class": {
            "orbit_class_type": "AMO",
            "orbit_class_description": "Near-Earth asteroid orbits similar to that of 1221 Amor",
            "orbit_class_range": "1.017 AU < q (perihelion) < 1.3 AU"
        }
    },
    "is_sentry_object": false
}